AEROCUBE 6A             
1 40045U 14033AM  26068.93083119  .00007845  00000+0  67890-3 0  9996
2 40045  97.7128 237.0691 0038730 349.0559  10.9816 14.96848607631764
STARLINK-34675          
1 64809U 25150V   26068.59944683  .00006513  00000+0  55310-3 0  9991
2 64809  70.0017 134.6736 0003422 269.9117  90.1650 14.98331751 36507
